{
    "links": {
        "self": "http://www.neowsapp.com/rest/v1/neo/3325501?api_key=iIulBulltgU6a56xZRHN4H3l9WmuAYTsLGpBGhQ2"
    },
    "id": "3325501",
    "neo_reference_id": "3325501",
    "name": "(2006 EB)",
    "designation": "2006 EB",
    "nasa_jpl_url": "http://ssd.jpl.nasa.gov/sbdb.cgi?sstr=3325501",
    "absolute_magnitude_h": 22.5,
    "estimated_diameter": {
        "kilometers": {
            "estimated_diameter_min": 0.0840533402,
            "estimated_diameter_max": 0.1879489824
        },
        "meters": {
            "estimated_diameter_min": 84.0533402073,
            "estimated_diameter_max": 187.9489824394
        },
        "miles": {
            "estimated_diameter_min": 0.0522283081,
            "estimated_diameter_max": 0.1167860472
        },
        "feet": {
            "estimated_diameter_min": 275.7655606856,
            "estimated_diameter_max": 616.6305395464
        }
    },
    "is_potentially_hazardous_asteroid": false,
    "close_approach_data": [
        {
            "close_approach_date": "2006-02-19",
            "close_approach_date_full": "2006-Feb-19 21:45",
            "epoch_date_close_approach": 1140385500000,
            "relative_velocity": {
                "kilometers_per_second": "25.3500081879",
                "kilometers_per_hour": "91260.0294766139",
                "miles_per_hour": "56705.4333156216"
            },
            "miss_distance": {
                "astronomical": "0.0878901952",
                "lunar": "34.1892859328",
                "kilometers": "13148185.995804224",
                "miles": "8169903.9343133312"
            },
            "orbiting_body": "Earth"
        }
    ],
    "orbital_data": {
        "orbit_id": "8",
        "orbit_determination_date": "2017-04-06 09:08:59",
        "first_observation_date": "2006-03-03",
        "last_observation_date": "2006-03-08",
        "data_arc_in_days": 5,
        "observations_used": 13,
        "orbit_uncertainty": "9",
        "minimum_orbit_intersection": ".00369141",
        "jupiter_tisserand_invariant": "3.689",
        "epoch_osculation": "2453799.5",
        "eccentricity": ".7254505553273529",
        "semi_major_axis": "1.808572795745577",
        "inclination": ".6874109894211334",
        "ascending_node_longitude": "286.0174118214899",
        "orbital_period": "888.3874562565358",
        "perihelion_distance": ".4965426567220049",
        "perihelion_argument": "120.0812860906965",
        "aphelion_distance": "3.120602934769149",
        "perihelion_time": "2453740.609519728646",
        "mean_anomaly": "23.86410653187503",
        "mean_motion": ".4052285941957789",
        "equinox": "J2000",
        "orbit_class": {
            "orbit_class_type": "APO",
            "orbit_class_description": "Near-Earth asteroid orbits which cross the Earth’s orbit similar to that of 1862 Apollo",
            "orbit_class_range": "a (semi-major axis) > 1.0 AU; q (perihelion) < 1.017 AU"
        }
    },
    "is_sentry_object": false
}